LEGION 1                
1 59625U 24081A   24149.88908666  .00006452  00000+0  33517-3 0  9991
2 59625  97.5760 220.9843 0004906  86.9400 273.2394 15.16436447  3955
